start=new Date('2022-12-29T00:00:00.000Z').valueOf();
sats=[{"TIME_SYSTEM":"UTC","TLE_LINE2":"2 47571  53.0543 213.6813 0001435  83.0647 277.0506 15.06409367105533","MEAN_MOTION_DOT":"0.00003666","RA_OF_ASC_NODE":"213.6813","ARG_OF_PERICENTER":"83.0647","BSTAR":"0.00026480000000","CLASSIFICATION_TYPE":"U","MEAN_ANOMALY":"277.0506","APOAPSIS":"548.179","CENTER_NAME":"EARTH","COUNTRY_CODE":"US","SITE":"AFETR","EPHEMERIS_TYPE":"0","GP_ID":"221626149","PERIAPSIS":"546.191","EPOCH":"2022-12-27T23:31:53.653440","TLE_LINE1":"1 47571U 21009Z   22361.98048210  .00003666  00000-0  26480-3 0  9996","NORAD_CAT_ID":"47571","PERIOD":"95.592","OBJECT_TYPE":"PAYLOAD","OBJECT_NAME":"STARLINK-1970","RCS_SIZE":"LARGE","INCLINATION":"53.0543","MEAN_MOTION_DDOT":"0.0000000000000","DECAY_DATE":null,"MEAN_ELEMENT_THEORY":"SGP4","REV_AT_EPOCH":"10553","MEAN_MOTION":"15.06409367","FILE":"3724159","REF_FRAME":"TEME","ECCENTRICITY":"0.00014350","LAUNCH_DATE":"2021-02-04","SEMIMAJOR_AXIS":"6925.320","ELEMENT_SET_NO":"999","OBJECT_ID":"2021-009Z"},{"REV_AT_EPOCH":"10503","MEAN_ELEMENT_THEORY":"SGP4","DECAY_DATE":null,"MEAN_MOTION":"15.06392572","MEAN_MOTION_DDOT":"0.0000000000000","INCLINATION":"53.0532","ELEMENT_SET_NO":"999","OBJECT_ID":"2021-009AA","REF_FRAME":"TEME","FILE":"3725038","SEMIMAJOR_AXIS":"6925.371","LAUNCH_DATE":"2021-02-04","ECCENTRICITY":"0.00015420","PERIOD":"95.593","NORAD_CAT_ID":"47572","RCS_SIZE":"LARGE","OBJECT_TYPE":"PAYLOAD","OBJECT_NAME":"STARLINK-1971","CENTER_NAME":"EARTH","EPHEMERIS_TYPE":"0","COUNTRY_CODE":"US","SITE":"AFETR","APOAPSIS":"548.304","MEAN_ANOMALY":"233.4114","EPOCH":"2022-12-28T15:00:45.569088","PERIAPSIS":"546.168","TLE_LINE1":"1 47572U 21009AA  22362.62552742  .00001392  00000-0  11238-3 0  9998","GP_ID":"221694659","MEAN_MOTION_DOT":"0.00001392","TLE_LINE2":"2 47572  53.0532 210.7808 0001542 126.7017 233.4114 15.06392572105034","TIME_SYSTEM":"UTC","ARG_OF_PERICENTER":"126.7017","BSTAR":"0.00011238000000","CLASSIFICATION_TYPE":"U","RA_OF_ASC_NODE":"210.7808"},{"ELEMENT_SET_NO":"999","OBJECT_ID":"2021-009AB","REF_FRAME":"TEME","FILE":"3724805","SEMIMAJOR_AXIS":"6925.321","LAUNCH_DATE":"2021-02-04","ECCENTRICITY":"0.00014900","REV_AT_EPOCH":"10493","DECAY_DATE":null,"MEAN_ELEMENT_THEORY":"SGP4","MEAN_MOTION":"15.06408847","INCLINATION":"53.0518","MEAN_MOTION_DDOT":"0.0000000000000","RCS_SIZE":"LARGE","OBJECT_TYPE":"PAYLOAD","OBJECT_NAME":"STARLINK-1975","PERIOD":"95.592","NORAD_CAT_ID":"47573","EPOCH":"2022-12-28T00:09:03.006720","PERIAPSIS":"546.155","TLE_LINE1":"1 47573U 21009AB  22362.00628480  .00003703  00000-0  26728-3 0  9992","GP_ID":"221662236","CENTER_NAME":"EARTH","EPHEMERIS_TYPE":"0","SITE":"AFETR","COUNTRY_CODE":"US","APOAPSIS":"548.218","MEAN_ANOMALY":"276.5385","ARG_OF_PERICENTER":"83.5774","CLASSIFICATION_TYPE":"U","BSTAR":"0.00026728000000","RA_OF_ASC_NODE":"213.5458","MEAN_MOTION_DOT":"0.00003703","TLE_LINE2":"2 47573  53.0518 213.5458 0001490  83.5774 276.5385 15.06408847104932","TIME_SYSTEM":"UTC"},{"OBJECT_ID":"2021-009AC","ELEMENT_SET_NO":"999","SEMIMAJOR_AXIS":"6925.368","LAUNCH_DATE":"2021-02-04","ECCENTRICITY":"0.00014440","REF_FRAME":"TEME","FILE":"3724966","MEAN_MOTION":"15.06393744","REV_AT_EPOCH":"10523","DECAY_DATE":null,"MEAN_ELEMENT_THEORY":"SGP4","MEAN_MOTION_DDOT":"0.0000000000000","INCLINATION":"53.0537","RCS_SIZE":"LARGE","OBJECT_NAME":"STARLINK-1976","OBJECT_TYPE":"PAYLOAD","PERIOD":"95.593","NORAD_CAT_ID":"47574","TLE_LINE1":"1 47574U 21009AC  22362.81811694 -.00000868  00000-0 -39375-4 0  9997","PERIAPSIS":"546.233","EPOCH":"2022-12-28T19:38:05.303616","GP_ID":"221670930","EPHEMERIS_TYPE":"0","COUNTRY_CODE":"US","SITE":"AFETR","CENTER_NAME":"EARTH","APOAPSIS":"548.233","MEAN_ANOMALY":"239.6636","BSTAR":"-0.00003937500000","CLASSIFICATION_TYPE":"U","ARG_OF_PERICENTER":"120.4496","RA_OF_ASC_NODE":"239.9125","MEAN_MOTION_DOT":"-0.00000868","TLE_LINE2":"2 47574  53.0537 239.9125 0001444 120.4496 239.6636 15.06393744105230","TIME_SYSTEM":"UTC"},{"REV_AT_EPOCH":"10450","MEAN_ELEMENT_THEORY":"SGP4","DECAY_DATE":null,"MEAN_MOTION":"15.06413076","INCLINATION":"53.0540","MEAN_MOTION_DDOT":"0.0000000000000","ELEMENT_SET_NO":"999","OBJECT_ID":"2021-009AD","REF_FRAME":"TEME","FILE":"3725038","SEMIMAJOR_AXIS":"6925.308","LAUNCH_DATE":"2021-02-04","ECCENTRICITY":"0.00013530","PERIOD":"95.591","NORAD_CAT_ID":"47575","RCS_SIZE":"LARGE","OBJECT_TYPE":"PAYLOAD","OBJECT_NAME":"STARLINK-1977","CENTER_NAME":"EARTH","EPHEMERIS_TYPE":"0","SITE":"AFETR","COUNTRY_CODE":"US","APOAPSIS":"548.110","MEAN_ANOMALY":"277.4416","PERIAPSIS":"546.236","EPOCH":"2022-12-27T22:40:08.290560","TLE_LINE1":"1 47575U 21009AD  22361.94454040  .00005367  00000-0  37878-3 0  9991","GP_ID":"221693908","MEAN_MOTION_DOT":"0.00005367","TLE_LINE2":"2 47575  53.0540 243.8394 0001353  82.6727 277.4416 15.06413076104508","TIME_SYSTEM":"UTC","ARG_OF_PERICENTER":"82.6727","BSTAR":"0.00037878000000","CLASSIFICATION_TYPE":"U","RA_OF_ASC_NODE":"243.8394"},{"NORAD_CAT_ID":"47576","PERIOD":"95.592","OBJECT_NAME":"STARLINK-1978","OBJECT_TYPE":"PAYLOAD","RCS_SIZE":"LARGE","INCLINATION":"53.0535","MEAN_MOTION_DDOT":"0.0000000000000","MEAN_MOTION":"15.06404148","REV_AT_EPOCH":"10568","DECAY_DATE":null,"MEAN_ELEMENT_THEORY":"SGP4","SEMIMAJOR_AXIS":"6925.336","LAUNCH_DATE":"2021-02-04","ECCENTRICITY":"0.00014130","REF_FRAME":"TEME","FILE":"3724159","OBJECT_ID":"2021-009AE","ELEMENT_SET_NO":"999","TLE_LINE2":"2 47576  53.0535 203.6950 0001413  87.2608 272.8543 15.06404148105681","TIME_SYSTEM":"UTC","MEAN_MOTION_DOT":"0.00000734","RA_OF_ASC_NODE":"203.6950","BSTAR":"0.00006813200000","CLASSIFICATION_TYPE":"U","ARG_OF_PERICENTER":"87.2608","APOAPSIS":"548.179","MEAN_ANOMALY":"272.8543","EPHEMERIS_TYPE":"0","SITE":"AFETR","COUNTRY_CODE":"US","CENTER_NAME":"EARTH","GP_ID":"221626286","TLE_LINE1":"1 47576U 21009AE  22361.97772244  .00000734  00000-0  68132-4 0  9995","PERIAPSIS":"546.222","EPOCH":"2022-12-27T23:27:55.218816"},{"TLE_LINE2":"2 47577  53.0530 215.2340 0001646  92.3014 267.8163 15.06413532105583","TIME_SYSTEM":"UTC","MEAN_MOTION_DOT":"0.00001711","RA_OF_ASC_NODE":"215.2340","CLASSIFICATION_TYPE":"U","BSTAR":"0.00013367000000","ARG_OF_PERICENTER":"92.3014","APOAPSIS":"548.312","MEAN_ANOMALY":"267.8163","EPHEMERIS_TYPE":"0","SITE":"AFETR","COUNTRY_CODE":"US","CENTER_NAME":"EARTH","GP_ID":"221670851","TLE_LINE1":"1 47577U 21009AF  22362.74855493  .00001711  00000-0  13367-3 0  9995","PERIAPSIS":"546.032","EPOCH":"2022-12-28T17:57:55.145952","NORAD_CAT_ID":"47577","PERIOD":"95.591","OBJECT_NAME":"STARLINK-1979","OBJECT_TYPE":"PAYLOAD","RCS_SIZE":"LARGE","INCLINATION":"53.0530","MEAN_MOTION_DDOT":"0.0000000000000","MEAN_MOTION":"15.06413532","REV_AT_EPOCH":"10558","DECAY_DATE":null,"MEAN_ELEMENT_THEORY":"SGP4","LAUNCH_DATE":"2021-02-04","SEMIMAJOR_AXIS":"6925.307","ECCENTRICITY":"0.00016460","REF_FRAME":"TEME","FILE":"3724966","OBJECT_ID":"2021-009AF","ELEMENT_SET_NO":"999"},{"MEAN_ANOMALY":"286.8354","APOAPSIS":"548.080","CENTER_NAME":"EARTH","COUNTRY_CODE":"US","SITE":"AFETR","EPHEMERIS_TYPE":"0","GP_ID":"221662988","EPOCH":"2022-12-28T00:18:22.048416","PERIAPSIS":"546.289","TLE_LINE1":"1 47578U 21009AG  22362.01275519  .00007348  00000-0  51157-3 0  9992","TIME_SYSTEM":"UTC","TLE_LINE2":"2 47578  53.0524 223.5367 0001293  73.2777 286.8354 15.06409554104794","MEAN_MOTION_DOT":"0.00007348","RA_OF_ASC_NODE":"223.5367","ARG_OF_PERICENTER":"73.2777","CLASSIFICATION_TYPE":"U","BSTAR":"0.00051157000000","INCLINATION":"53.0524","MEAN_MOTION_DDOT":"0.0000000000000","MEAN_ELEMENT_THEORY":"SGP4","DECAY_DATE":null,"REV_AT_EPOCH":"10479","MEAN_MOTION":"15.06409554","FILE":"3724805","REF_FRAME":"TEME","ECCENTRICITY":"0.00012930","SEMIMAJOR_AXIS":"6925.319","LAUNCH_DATE":"2021-02-04","ELEMENT_SET_NO":"999","OBJECT_ID":"2021-009AG","NORAD_CAT_ID":"47578","PERIOD":"95.592","OBJECT_TYPE":"PAYLOAD","OBJECT_NAME":"STARLINK-1980","RCS_SIZE":"LARGE"},{"MEAN_MOTION_DOT":"0.00001435","TLE_LINE2":"2 47579  53.0542 213.6150 0001579  62.8246 297.2904 15.06406183105532","TIME_SYSTEM":"UTC","BSTAR":"0.00011518000000","CLASSIFICATION_TYPE":"U","ARG_OF_PERICENTER":"62.8246","RA_OF_ASC_NODE":"213.6150","EPHEMERIS_TYPE":"0","COUNTRY_CODE":"US","SITE":"AFETR","CENTER_NAME":"EARTH","APOAPSIS":"548.288","MEAN_ANOMALY":"297.2904","TLE_LINE1":"1 47579U 21009AH  22361.99522534  .00001435  00000-0  11518-3 0  9999","EPOCH":"2022-12-27T23:53:07.469376","PERIAPSIS":"546.101","GP_ID":"221626156","PERIOD":"95.592","NORAD_CAT_ID":"47579","RCS_SIZE":"LARGE","OBJECT_NAME":"STARLINK-1981","OBJECT_TYPE":"PAYLOAD","MEAN_MOTION":"15.06406183","REV_AT_EPOCH":"10553","DECAY_DATE":null,"MEAN_ELEMENT_THEORY":"SGP4","MEAN_MOTION_DDOT":"0.0000000000000","INCLINATION":"53.0542","OBJECT_ID":"2021-009AH","ELEMENT_SET_NO":"999","SEMIMAJOR_AXIS":"6925.330","LAUNCH_DATE":"2021-02-04","ECCENTRICITY":"0.00015790","REF_FRAME":"TEME","FILE":"3724159"},{"RCS_SIZE":"LARGE","OBJECT_NAME":"STARLINK-1982","OBJECT_TYPE":"PAYLOAD","PERIOD":"95.593","NORAD_CAT_ID":"47580","OBJECT_ID":"2021-009AJ","ELEMENT_SET_NO":"999","LAUNCH_DATE":"2021-02-04","SEMIMAJOR_AXIS":"6925.408","ECCENTRICITY":"0.00018320","REF_FRAME":"TEME","FILE":"3724966","MEAN_MOTION":"15.06380504","REV_AT_EPOCH":"10550","MEAN_ELEMENT_THEORY":"SGP4","DECAY_DATE":null,"INCLINATION":"53.0514","MEAN_MOTION_DDOT":"0.0000000000000","BSTAR":"-0.00018360000000","CLASSIFICATION_TYPE":"U","ARG_OF_PERICENTER":"79.2696","RA_OF_ASC_NODE":"220.2245","MEAN_MOTION_DOT":"-0.00003014","TLE_LINE2":"2 47580  53.0514 220.2245 0001832  79.2696 280.8499 15.06380504105507","TIME_SYSTEM":"UTC","TLE_LINE1":"1 47580U 21009AJ  22362.74625564 -.00003014  00000-0 -18360-3 0  9991","EPOCH":"2022-12-28T17:54:36.487296","PERIAPSIS":"546.005","GP_ID":"221670857","EPHEMERIS_TYPE":"0","COUNTRY_CODE":"US","SITE":"AFETR","CENTER_NAME":"EARTH","APOAPSIS":"548.542","MEAN_ANOMALY":"280.8499"}];
